ONEWEB-0424             
1 50497U 21132AE  24049.53554292  .00000059  00000+0  11795-3 0  9997
2 50497  87.9239 144.5596 0001250 103.6268 256.5003 13.18685226109668
ONEWEB-0426             
1 50498U 21132AF  24049.49760183  .00000022  00000+0  23642-4 0  9996
2 50498  87.9234 144.5891 0002111 126.2609 233.8719 13.18685148109608
ONEWEB-0427             
1 50499U 21132AG  24049.53395715  .00000045  00000+0  82420-4 0  9991
2 50499  87.9236 144.5578 0001749 115.7212 244.4101 13.18685827109632
ONEWEB-0430             
1 50501U 21132AJ  24049.51025320 -.00000051  00000+0 -16164-3 0  9995
2 50501  87.9237 144.5697 0001496  92.5976 267.5327 13.18686804109640
ONEWEB-0432             
1 50502U 21132AK  24049.61773704  .00000015  00000+0  56327-5 0  9998
2 50502  87.9237 144.5427 0001783 104.2000 255.9330 13.18685406109619
ONEWEB-0440             
1 50503U 21132AL  24049.52921854  .00000008  00000+0 -12596-4 0  9992
2 50503  87.9239 144.5453 0002455 104.8024 255.3381 13.18685211109591
ONEWEB-0450             
1 50504U 21132AM  24049.52289549  .00000091  00000+0  19755-3 0  9995
2 50504  87.9240 144.5747 0001942  93.3584 266.7770 13.18685269109628
